[{"ORDINAL":"4","COMMENT":"GENERATED VIA SPACETRACK.ORG API","ORIGINATOR":"JSPOC","NORAD_CAT_ID":"39524","OBJECT_NAME":"BREEZE-M DEB (TANK)","OBJECT_TYPE":"DEBRIS","CLASSIFICATION_TYPE":"U","INTLDES":"14007C","EPOCH":"2014-11-26 13:45:51","EPOCH_MICROSECONDS":"831647","MEAN_MOTION":"3.71422341","ECCENTRICITY":"0.6180165","INCLINATION":"49.3937","RA_OF_ASC_NODE":"332.8249","ARG_OF_PERICENTER":"114.5197","MEAN_ANOMALY":"319.9924","EPHEMERIS_TYPE":"0","ELEMENT_SET_NO":"175","REV_AT_EPOCH":"1054","BSTAR":"0.00062354","MEAN_MOTION_DOT":"8.74e-06","MEAN_MOTION_DDOT":"0","FILE":"1784390","TLE_LINE0":"0 BREEZE-M DEB (TANK)","TLE_LINE1":"1 39524U 14007C   14330.57351657  .00000874  00000-0  62354-3 0  1753","TLE_LINE2":"2 39524 049.3937 332.8249 6180165 114.5197 319.9924 03.71422341 10540","OBJECT_ID":"2014-007C","OBJECT_NUMBER":"39524"},{"ORDINAL":"4","COMMENT":"GENERATED VIA SPACETRACK.ORG API","ORIGINATOR":"JSPOC","NORAD_CAT_ID":"40288","OBJECT_NAME":"CZ-2C DEB","OBJECT_TYPE":"DEBRIS","CLASSIFICATION_TYPE":"U","INTLDES":"14066C","EPOCH":"2014-11-26 06:00:24","EPOCH_MICROSECONDS":"223967","MEAN_MOTION":"14.18324016","ECCENTRICITY":"0.0193678","INCLINATION":"97.972","RA_OF_ASC_NODE":"81.5354","ARG_OF_PERICENTER":"83.2388","MEAN_ANOMALY":"279.079","EPHEMERIS_TYPE":"0","ELEMENT_SET_NO":"38","REV_AT_EPOCH":"424","BSTAR":"0.00075013","MEAN_MOTION_DOT":"1.824e-05","MEAN_MOTION_DDOT":"0","FILE":"1784056","TLE_LINE0":"0 CZ-2C DEB","TLE_LINE1":"1 40288U 14066C   14330.25028037  .00001824  00000-0  75013-3 0   385","TLE_LINE2":"2 40288 097.9720 081.5354 0193678 083.2388 279.0790 14.18324016  4244","OBJECT_ID":"2014-066C","OBJECT_NUMBER":"40288"},{"ORDINAL":"5","COMMENT":"GENERATED VIA SPACETRACK.ORG API","ORIGINATOR":"JSPOC","NORAD_CAT_ID":"40289","OBJECT_NAME":"CZ-2C DEB","OBJECT_TYPE":"DEBRIS","CLASSIFICATION_TYPE":"U","INTLDES":"14066D","EPOCH":"2014-11-25 20:56:08","EPOCH_MICROSECONDS":"759040","MEAN_MOTION":"14.46776313","ECCENTRICITY":"0.0115312","INCLINATION":"98.4334","RA_OF_ASC_NODE":"83.9311","ARG_OF_PERICENTER":"133.5841","MEAN_ANOMALY":"227.4981","EPHEMERIS_TYPE":"0","ELEMENT_SET_NO":"41","REV_AT_EPOCH":"427","BSTAR":"0.0020248","MEAN_MOTION_DOT":"7.924e-05","MEAN_MOTION_DDOT":"0","FILE":"1783889","TLE_LINE0":"0 CZ-2C DEB","TLE_LINE1":"1 40289U 14066D   14329.87232360  .00007924  00000-0  20248-2 0   418","TLE_LINE2":"2 40289 098.4334 083.9311 0115312 133.5841 227.4981 14.46776313  4277","OBJECT_ID":"2014-066D","OBJECT_NUMBER":"40289"},{"ORDINAL":"4","COMMENT":"GENERATED VIA SPACETRACK.ORG API","ORIGINATOR":"JSPOC","NORAD_CAT_ID":"40274","OBJECT_NAME":"ARIANE 5 DEB (SYLDA)","OBJECT_TYPE":"DEBRIS","CLASSIFICATION_TYPE":"U","INTLDES":"14062D","EPOCH":"2014-11-25 17:13:50","EPOCH_MICROSECONDS":"979359","MEAN_MOTION":"2.30093299","ECCENTRICITY":"0.7257022","INCLINATION":"5.9353","RA_OF_ASC_NODE":"161.8221","ARG_OF_PERICENTER":"211.0584","MEAN_ANOMALY":"71.0734","EPHEMERIS_TYPE":"0","ELEMENT_SET_NO":"28","REV_AT_EPOCH":"90","BSTAR":"0.008145","MEAN_MOTION_DOT":"0.00019794","MEAN_MOTION_DDOT":"0","FILE":"1784046","TLE_LINE0":"0 ARIANE 5 DEB (SYLDA)","TLE_LINE1":"1 40274U 14062D   14329.71795115  .00019794  00000-0  81450-2 0   288","TLE_LINE2":"2 40274 005.9353 161.8221 7257022 211.0584 071.0734 02.30093299   909","OBJECT_ID":"2014-062D","OBJECT_NUMBER":"40274"},{"ORDINAL":"5","COMMENT":"GENERATED VIA SPACETRACK.ORG API","ORIGINATOR":"JSPOC","NORAD_CAT_ID":"40265","OBJECT_NAME":"CZ-2C DEB","OBJECT_TYPE":"DEBRIS","CLASSIFICATION_TYPE":"U","INTLDES":"14059E","EPOCH":"2014-11-25 11:32:19","EPOCH_MICROSECONDS":"720319","MEAN_MOTION":"14.18039339","ECCENTRICITY":"0.0200101","INCLINATION":"97.9399","RA_OF_ASC_NODE":"51.6832","ARG_OF_PERICENTER":"359.7477","MEAN_ANOMALY":"0.3568","EPHEMERIS_TYPE":"0","ELEMENT_SET_NO":"34","REV_AT_EPOCH":"825","BSTAR":"0.00071101","MEAN_MOTION_DOT":"1.737e-05","MEAN_MOTION_DDOT":"0","FILE":"1783651","TLE_LINE0":"0 CZ-2C DEB","TLE_LINE1":"1 40265U 14059E   14329.48078380  .00001737  00000-0  71101-3 0   344","TLE_LINE2":"2 40265 097.9399 051.6832 0200101 359.7477 000.3568 14.18039339  8254","OBJECT_ID":"2014-059E","OBJECT_NUMBER":"40265"},{"ORDINAL":"5","COMMENT":"GENERATED VIA SPACETRACK.ORG API","ORIGINATOR":"JSPOC","NORAD_CAT_ID":"40274","OBJECT_NAME":"ARIANE 5 DEB (SYLDA)","OBJECT_TYPE":"DEBRIS","CLASSIFICATION_TYPE":"U","INTLDES":"14062D","EPOCH":"2014-11-25 06:49:22","EPOCH_MICROSECONDS":"691423","MEAN_MOTION":"2.30080605","ECCENTRICITY":"0.7257384","INCLINATION":"5.9369","RA_OF_ASC_NODE":"162.0068","ARG_OF_PERICENTER":"210.6927","MEAN_ANOMALY":"71.8952","EPHEMERIS_TYPE":"0","ELEMENT_SET_NO":"27","REV_AT_EPOCH":"89","BSTAR":"0.0083359","MEAN_MOTION_DOT":"0.00020536","MEAN_MOTION_DDOT":"0","FILE":"1783674","TLE_LINE0":"0 ARIANE 5 DEB (SYLDA)","TLE_LINE1":"1 40274U 14062D   14329.28429041  .00020536  00000-0  83359-2 0   277","TLE_LINE2":"2 40274 005.9369 162.0068 7257384 210.6927 071.8952 02.30080605   890","OBJECT_ID":"2014-062D","OBJECT_NUMBER":"40274"},{"ORDINAL":"5","COMMENT":"GENERATED VIA SPACETRACK.ORG API","ORIGINATOR":"JSPOC","NORAD_CAT_ID":"40113","OBJECT_NAME":"CZ-4C DEB","OBJECT_TYPE":"DEBRIS","CLASSIFICATION_TYPE":"U","INTLDES":"14047E","EPOCH":"2014-11-25 06:12:41","EPOCH_MICROSECONDS":"982335","MEAN_MOTION":"13.43920276","ECCENTRICITY":"0.0019365","INCLINATION":"63.4169","RA_OF_ASC_NODE":"75.0566","ARG_OF_PERICENTER":"26.853","MEAN_ANOMALY":"333.3497","EPHEMERIS_TYPE":"0","ELEMENT_SET_NO":"76","REV_AT_EPOCH":"1451","BSTAR":"0","MEAN_MOTION_DOT":"-9e-07","MEAN_MOTION_DDOT":"0","FILE":"1783541","TLE_LINE0":"0 CZ-4C DEB","TLE_LINE1":"1 40113U 14047E   14329.25881924 -.00000090  00000-0  00000+0 0   768","TLE_LINE2":"2 40113 063.4169 075.0566 0019365 026.8530 333.3497 13.43920276 14517","OBJECT_ID":"2014-047E","OBJECT_NUMBER":"40113"},{"ORDINAL":"5","COMMENT":"GENERATED VIA SPACETRACK.ORG API","ORIGINATOR":"JSPOC","NORAD_CAT_ID":"40263","OBJECT_NAME":"CZ-2C DEB","OBJECT_TYPE":"DEBRIS","CLASSIFICATION_TYPE":"U","INTLDES":"14059C","EPOCH":"2014-11-25 05:18:47","EPOCH_MICROSECONDS":"51424","MEAN_MOTION":"14.47030549","ECCENTRICITY":"0.0115419","INCLINATION":"98.3314","RA_OF_ASC_NODE":"56.4848","ARG_OF_PERICENTER":"44.7581","MEAN_ANOMALY":"316.2855","EPHEMERIS_TYPE":"0","ELEMENT_SET_NO":"43","REV_AT_EPOCH":"839","BSTAR":"0.0013268","MEAN_MOTION_DOT":"5.204e-05","MEAN_MOTION_DDOT":"0","FILE":"1783509","TLE_LINE0":"0 CZ-2C DEB","TLE_LINE1":"1 40263U 14059C   14329.22137791  .00005204  00000-0  13268-2 0   438","TLE_LINE2":"2 40263 098.3314 056.4848 0115419 044.7581 316.2855 14.47030549  8397","OBJECT_ID":"2014-059C","OBJECT_NUMBER":"40263"},{"ORDINAL":"5","COMMENT":"GENERATED VIA SPACETRACK.ORG API","ORIGINATOR":"JSPOC","NORAD_CAT_ID":"39629","OBJECT_NAME":"CZ-2C DEB","OBJECT_TYPE":"DEBRIS","CLASSIFICATION_TYPE":"U","INTLDES":"14014F","EPOCH":"2014-11-25 02:53:48","EPOCH_MICROSECONDS":"200063","MEAN_MOTION":"14.21907774","ECCENTRICITY":"0.0180369","INCLINATION":"98.4698","RA_OF_ASC_NODE":"13.9114","ARG_OF_PERICENTER":"197.3222","MEAN_ANOMALY":"162.1752","EPHEMERIS_TYPE":"0","ELEMENT_SET_NO":"135","REV_AT_EPOCH":"3394","BSTAR":"0.00070543","MEAN_MOTION_DOT":"1.793e-05","MEAN_MOTION_DDOT":"0","FILE":"1783431","TLE_LINE0":"0 CZ-2C DEB","TLE_LINE1":"1 39629U 14014F   14329.12069676  .00001793  00000-0  70543-3 0  1359","TLE_LINE2":"2 39629 098.4698 013.9114 0180369 197.3222 162.1752 14.21907774 33942","OBJECT_ID":"2014-014F","OBJECT_NUMBER":"39629"},{"ORDINAL":"5","COMMENT":"GENERATED VIA SPACETRACK.ORG API","ORIGINATOR":"JSPOC","NORAD_CAT_ID":"39626","OBJECT_NAME":"CZ-2C DEB","OBJECT_TYPE":"DEBRIS","CLASSIFICATION_TYPE":"U","INTLDES":"14014C","EPOCH":"2014-11-24 19:19:09","EPOCH_MICROSECONDS":"430464","MEAN_MOTION":"14.48982326","ECCENTRICITY":"0.0111253","INCLINATION":"98.0247","RA_OF_ASC_NODE":"11.3212","ARG_OF_PERICENTER":"213.0239","MEAN_ANOMALY":"146.3974","EPHEMERIS_TYPE":"0","ELEMENT_SET_NO":"151","REV_AT_EPOCH":"3453","BSTAR":"0.0012925","MEAN_MOTION_DOT":"5.257e-05","MEAN_MOTION_DDOT":"0","FILE":"1783286","TLE_LINE0":"0 CZ-2C DEB","TLE_LINE1":"1 39626U 14014C   14328.80497026  .00005257  00000-0  12925-2 0  1510","TLE_LINE2":"2 39626 098.0247 011.3212 0111253 213.0239 146.3974 14.48982326 34537","OBJECT_ID":"2014-014C","OBJECT_NUMBER":"39626"},{"ORDINAL":"5","COMMENT":"GENERATED VIA SPACETRACK.ORG API","ORIGINATOR":"JSPOC","NORAD_CAT_ID":"39627","OBJECT_NAME":"CZ-2C DEB","OBJECT_TYPE":"DEBRIS","CLASSIFICATION_TYPE":"U","INTLDES":"14014D","EPOCH":"2014-11-24 19:07:29","EPOCH_MICROSECONDS":"548128","MEAN_MOTION":"14.2047782","ECCENTRICITY":"0.0185471","INCLINATION":"98.0616","RA_OF_ASC_NODE":"2.2108","ARG_OF_PERICENTER":"190.491","MEAN_ANOMALY":"169.2376","EPHEMERIS_TYPE":"0","ELEMENT_SET_NO":"135","REV_AT_EPOCH":"3386","BSTAR":"0.0006872","MEAN_MOTION_DOT":"1.714e-05","MEAN_MOTION_DDOT":"0","FILE":"1783286","TLE_LINE0":"0 CZ-2C DEB","TLE_LINE1":"1 39627U 14014D   14328.79686977  .00001714  00000-0  68720-3 0  1355","TLE_LINE2":"2 39627 098.0616 002.2108 0185471 190.4910 169.2376 14.20477820 33861","OBJECT_ID":"2014-014D","OBJECT_NUMBER":"39627"},{"ORDINAL":"5","COMMENT":"GENERATED VIA SPACETRACK.ORG API","ORIGINATOR":"JSPOC","NORAD_CAT_ID":"40291","OBJECT_NAME":"CZ-2C DEB","OBJECT_TYPE":"DEBRIS","CLASSIFICATION_TYPE":"U","INTLDES":"14066F","EPOCH":"2014-11-24 13:35:52","EPOCH_MICROSECONDS":"833407","MEAN_MOTION":"14.2146106","ECCENTRICITY":"0.018095","INCLINATION":"98.4412","RA_OF_ASC_NODE":"81.5316","ARG_OF_PERICENTER":"87.3539","MEAN_ANOMALY":"274.8337","EPHEMERIS_TYPE":"0","ELEMENT_SET_NO":"19","REV_AT_EPOCH":"401","BSTAR":"0.0016386","MEAN_MOTION_DOT":"4.192e-05","MEAN_MOTION_DDOT":"0","FILE":"1783188","TLE_LINE0":"0 CZ-2C DEB","TLE_LINE1":"1 40291U 14066F   14328.56658372  .00004192  00000-0  16386-2 0   198","TLE_LINE2":"2 40291 098.4412 081.5316 0180950 087.3539 274.8337 14.21461060  4012","OBJECT_ID":"2014-066F","OBJECT_NUMBER":"40291"}]